ORBCOMM FM108           
1 41187U 15081J   25093.41116424  .00001538  00000+0  36847-3 0  9995
2 41187  47.0039 100.0610 0003430 316.9546  43.1071 14.57955254495885
ORBCOMM FM117           
1 41188U 15081K   25093.30899623  .00001370  00000+0  33221-3 0  9990
2 41188  47.0001  99.3313 0003802 324.1842  35.8788 14.57960374495914
ORBCOMM FM116           
1 41189U 15081L   25093.57449518  .00002509  00000+0  57751-3 0  9993
2 41189  47.0006 187.9484 0000549  23.3170 336.7740 14.57982986494766
